{
  "norad_id": 53662,
  "name": "STARLINK-4357",
  "history": [
    {
      "epoch": "2026-03-28T22:37:00.945984Z",
      "apogee_km": 551.3998520551086,
      "perigee_km": 547.6298239248736,
      "latitude_deg": -5.135566196392025e-05,
      "longitude_deg": 164.51418498889987,
      "height_km": 552.4286126199762,
      "semi_major_axis_km": 6927.651837989991,
      "eccentricity": 0.0002721,
      "inclination_deg": 97.6043,
      "raan_deg": 330.1237,
      "arg_perigee_deg": 85.5339,
      "mean_anomaly_deg": 274.6198,
      "mean_motion_rev_day": 15.05648799
    },
    {
      "epoch": "2026-03-29T04:59:48.839424Z",
      "apogee_km": 551.4045460283323,
      "perigee_km": 547.6400559641706,
      "latitude_deg": -1.0463636751680832e-05,
      "longitude_deg": 68.8145075688887,
      "height_km": 552.4400332988237,
      "semi_major_axis_km": 6927.659300996251,
      "eccentricity": 0.0002717,
      "inclination_deg": 97.6045,
      "raan_deg": 330.3856,
      "arg_perigee_deg": 85.6484,
      "mean_anomaly_deg": 274.5053,
      "mean_motion_rev_day": 15.05646366
    },
    {
      "epoch": "2026-03-30T03:19:34.908672Z",
      "apogee_km": 553.2634183945192,
      "perigee_km": 545.6306063296988,
      "latitude_deg": 3.1504080494222373e-05,
      "longitude_deg": 93.87250887123835,
      "height_km": 552.3890596569069,
      "semi_major_axis_km": 6927.584012362109,
      "eccentricity": 0.0005509,
      "inclination_deg": 97.6045,
      "raan_deg": 331.3026,
      "arg_perigee_deg": 88.3063,
      "mean_anomaly_deg": 271.8795,
      "mean_motion_rev_day": 15.05670911
    },
    {
      "epoch": "2026-03-30T04:55:08.003136Z",
      "apogee_km": 550.1561263119802,
      "perigee_km": 548.0977591040446,
      "latitude_deg": 3.099953664163414e-05,
      "longitude_deg": 69.98481268622851,
      "height_km": 552.0632382593177,
      "semi_major_axis_km": 6927.263942708012,
      "eccentricity": 0.00014857,
      "inclination_deg": 97.6045,
      "raan_deg": 331.3682,
      "arg_perigee_deg": 82.9333,
      "mean_anomaly_deg": 277.2063,
      "mean_motion_rev_day": 15.05775265
    },
    {
      "epoch": "2026-03-30T14:29:01.116096Z",
      "apogee_km": 550.1154696870826,
      "perigee_km": 546.9420870273852,
      "latitude_deg": -3.825881194784337e-05,
      "longitude_deg": -73.48559212962499,
      "height_km": 551.455866440716,
      "semi_major_axis_km": 6926.665778357234,
      "eccentricity": 0.00022907,
      "inclination_deg": 97.6046,
      "raan_deg": 331.7619,
      "arg_perigee_deg": 85.1306,
      "mean_anomaly_deg": 275.0182,
      "mean_motion_rev_day": 15.0597032
    },
    {
      "epoch": "2026-03-30T22:27:12.546432Z",
      "apogee_km": 549.9718393367584,
      "perigee_km": 546.0877835122483,
      "latitude_deg": -2.629392466264034e-05,
      "longitude_deg": 166.96737049483872,
      "height_km": 551.1017873999077,
      "semi_major_axis_km": 6926.166811424503,
      "eccentricity": 0.00028039,
      "inclination_deg": 97.6046,
      "raan_deg": 332.0898,
      "arg_perigee_deg": 90.3218,
      "mean_anomaly_deg": 269.833,
      "mean_motion_rev_day": 15.0613306
    }
  ]
}